start=new Date('2023-05-20T00:00:00.000Z').valueOf();
sats=[{"NORAD_CAT_ID":"52092","BSTAR":"0.00006711600000","MEAN_ELEMENT_THEORY":"SGP4","DECAY_DATE":null,"OBJECT_TYPE":"PAYLOAD","ELEMENT_SET_NO":"999","INCLINATION":"53.2170","SITE":"AFETR","CLASSIFICATION_TYPE":"U","OBJECT_NAME":"STARLINK-3716","OBJECT_ID":"2022-029E","TIME_SYSTEM":"UTC","PERIAPSIS":"538.964","MEAN_MOTION_DOT":"0.00000781","REV_AT_EPOCH":"6594","APOAPSIS":"540.518","MEAN_ANOMALY":"274.7980","ECCENTRICITY":"0.00011230","RCS_SIZE":"LARGE","REF_FRAME":"TEME","TLE_LINE2":"2 52092  53.2170   9.6506 0001123  85.3141 274.7980 15.08841482 65945","FILE":"3912278","ARG_OF_PERICENTER":"85.3141","CENTER_NAME":"EARTH","EPHEMERIS_TYPE":"0","GP_ID":"232161997","TLE_LINE1":"1 52092U 22029E   23139.88418052  .00000781  00000-0  67116-4 0  9998","LAUNCH_DATE":"2022-03-19","EPOCH":"2023-05-19T21:13:13.196928","SEMIMAJOR_AXIS":"6917.876","PERIOD":"95.437","RA_OF_ASC_NODE":"9.6506","MEAN_MOTION":"15.08841482","MEAN_MOTION_DDOT":"0.0000000000000","COUNTRY_CODE":"US"},{"TLE_LINE2":"2 52093  53.2171   9.4086 0001112  97.3860 262.7258 15.08841211 65953","FILE":"3912278","ECCENTRICITY":"0.00011120","MEAN_ANOMALY":"262.7258","APOAPSIS":"540.511","REV_AT_EPOCH":"6595","REF_FRAME":"TEME","RCS_SIZE":"LARGE","RA_OF_ASC_NODE":"9.4086","PERIOD":"95.437","COUNTRY_CODE":"US","MEAN_MOTION_DDOT":"0.0000000000000","MEAN_MOTION":"15.08841211","TLE_LINE1":"1 52093U 22029F   23139.94033659  .00001286  00000-0  98880-4 0  9995","GP_ID":"232160774","EPHEMERIS_TYPE":"0","ARG_OF_PERICENTER":"97.3860","CENTER_NAME":"EARTH","SEMIMAJOR_AXIS":"6917.877","LAUNCH_DATE":"2022-03-19","EPOCH":"2023-05-19T22:34:05.081376","ELEMENT_SET_NO":"999","INCLINATION":"53.2171","NORAD_CAT_ID":"52093","DECAY_DATE":null,"OBJECT_TYPE":"PAYLOAD","MEAN_ELEMENT_THEORY":"SGP4","BSTAR":"0.00009888000000","OBJECT_NAME":"STARLINK-3673","OBJECT_ID":"2022-029F","MEAN_MOTION_DOT":"0.00001286","PERIAPSIS":"538.972","TIME_SYSTEM":"UTC","SITE":"AFETR","CLASSIFICATION_TYPE":"U"},{"NORAD_CAT_ID":"52094","BSTAR":"-0.00000230060000","DECAY_DATE":null,"OBJECT_TYPE":"PAYLOAD","MEAN_ELEMENT_THEORY":"SGP4","ELEMENT_SET_NO":"999","INCLINATION":"53.2178","SITE":"AFETR","CLASSIFICATION_TYPE":"U","OBJECT_NAME":"STARLINK-3714","OBJECT_ID":"2022-029G","PERIAPSIS":"538.973","TIME_SYSTEM":"UTC","MEAN_MOTION_DOT":"-0.00000324","APOAPSIS":"540.477","MEAN_ANOMALY":"277.0367","REV_AT_EPOCH":"6595","ECCENTRICITY":"0.00010870","RCS_SIZE":"LARGE","REF_FRAME":"TEME","TLE_LINE2":"2 52094  53.2178   9.3880 0001087  83.0749 277.0367 15.08846537 65957","FILE":"3912278","CENTER_NAME":"EARTH","ARG_OF_PERICENTER":"83.0749","TLE_LINE1":"1 52094U 22029G   23139.94305858 -.00000324  00000-0 -23006-5 0  9992","EPHEMERIS_TYPE":"0","GP_ID":"232161523","LAUNCH_DATE":"2022-03-19","SEMIMAJOR_AXIS":"6917.860","EPOCH":"2023-05-19T22:38:00.261312","RA_OF_ASC_NODE":"9.3880","PERIOD":"95.437","MEAN_MOTION":"15.08846537","COUNTRY_CODE":"US","MEAN_MOTION_DDOT":"0.0000000000000"},{"NORAD_CAT_ID":"52095","BSTAR":"0.00001746900000","MEAN_ELEMENT_THEORY":"SGP4","DECAY_DATE":null,"OBJECT_TYPE":"PAYLOAD","ELEMENT_SET_NO":"999","INCLINATION":"53.2178","SITE":"AFETR","CLASSIFICATION_TYPE":"U","OBJECT_NAME":"STARLINK-3701","OBJECT_ID":"2022-029H","TIME_SYSTEM":"UTC","PERIAPSIS":"538.944","MEAN_MOTION_DOT":"-0.00000010","REV_AT_EPOCH":"6595","MEAN_ANOMALY":"283.5243","APOAPSIS":"540.570","ECCENTRICITY":"0.00011750","RCS_SIZE":"LARGE","REF_FRAME":"TEME","TLE_LINE2":"2 52095  53.2178   9.4363 0001175  76.5880 283.5243 15.08836293 65959","FILE":"3912278","CENTER_NAME":"EARTH","ARG_OF_PERICENTER":"76.5880","EPHEMERIS_TYPE":"0","GP_ID":"232161775","TLE_LINE1":"1 52095U 22029H   23139.93202376 -.00000010  00000-0  17469-4 0  9999","SEMIMAJOR_AXIS":"6917.892","LAUNCH_DATE":"2022-03-19","EPOCH":"2023-05-19T22:22:06.852864","PERIOD":"95.438","RA_OF_ASC_NODE":"9.4363","MEAN_MOTION":"15.08836293","MEAN_MOTION_DDOT":"0.0000000000000","COUNTRY_CODE":"US"},{"ELEMENT_SET_NO":"999","INCLINATION":"53.2182","NORAD_CAT_ID":"52096","DECAY_DATE":null,"OBJECT_TYPE":"PAYLOAD","MEAN_ELEMENT_THEORY":"SGP4","BSTAR":"0.00004373700000","OBJECT_ID":"2022-029J","OBJECT_NAME":"STARLINK-3717","MEAN_MOTION_DOT":"0.00000408","TIME_SYSTEM":"UTC","PERIAPSIS":"539.059","SITE":"AFETR","CLASSIFICATION_TYPE":"U","TLE_LINE2":"2 52096  53.2182 359.5304 0001002  94.6155 265.4951 15.08837811 66070","FILE":"3912278","ECCENTRICITY":"0.00010020","REV_AT_EPOCH":"6607","APOAPSIS":"540.445","MEAN_ANOMALY":"265.4951","REF_FRAME":"TEME","RCS_SIZE":"LARGE","PERIOD":"95.438","RA_OF_ASC_NODE":"359.5304","MEAN_MOTION_DDOT":"0.0000000000000","COUNTRY_CODE":"US","MEAN_MOTION":"15.08837811","EPHEMERIS_TYPE":"0","GP_ID":"232162497","TLE_LINE1":"1 52096U 22029J   23139.91086157  .00000408  00000-0  43737-4 0  9992","CENTER_NAME":"EARTH","ARG_OF_PERICENTER":"94.6155","SEMIMAJOR_AXIS":"6917.887","LAUNCH_DATE":"2022-03-19","EPOCH":"2023-05-19T21:51:38.439648"},{"CLASSIFICATION_TYPE":"U","SITE":"AFETR","MEAN_MOTION_DOT":"-0.00001107","TIME_SYSTEM":"UTC","PERIAPSIS":"539.002","OBJECT_ID":"2022-029L","OBJECT_NAME":"STARLINK-3665","MEAN_ELEMENT_THEORY":"SGP4","DECAY_DATE":null,"OBJECT_TYPE":"PAYLOAD","BSTAR":"-0.00005148900000","NORAD_CAT_ID":"52098","INCLINATION":"53.2171","ELEMENT_SET_NO":"999","EPOCH":"2023-05-19T22:27:24.229440","LAUNCH_DATE":"2022-03-19","SEMIMAJOR_AXIS":"6917.869","EPHEMERIS_TYPE":"0","GP_ID":"232161273","TLE_LINE1":"1 52098U 22029L   23139.93569710 -.00001107  00000-0 -51489-4 0  9999","CENTER_NAME":"EARTH","ARG_OF_PERICENTER":"94.0777","MEAN_MOTION_DDOT":"0.0000000000000","COUNTRY_CODE":"US","MEAN_MOTION":"15.08843815","PERIOD":"95.437","RA_OF_ASC_NODE":"9.4187","REF_FRAME":"TEME","RCS_SIZE":"LARGE","ECCENTRICITY":"0.00010580","REV_AT_EPOCH":"6595","MEAN_ANOMALY":"266.0336","APOAPSIS":"540.466","FILE":"3912278","TLE_LINE2":"2 52098  53.2171   9.4187 0001058  94.0777 266.0336 15.08843815 65956"},{"EPHEMERIS_TYPE":"0","GP_ID":"232161024","TLE_LINE1":"1 52100U 22029N   23139.92834235  .00000511  00000-0  50192-4 0  9995","CENTER_NAME":"EARTH","ARG_OF_PERICENTER":"88.1350","EPOCH":"2023-05-19T22:16:48.779040","LAUNCH_DATE":"2022-03-19","SEMIMAJOR_AXIS":"6917.884","PERIOD":"95.438","RA_OF_ASC_NODE":"9.4531","MEAN_MOTION_DDOT":"0.0000000000000","COUNTRY_CODE":"US","MEAN_MOTION":"15.08838892","ECCENTRICITY":"0.00009510","REV_AT_EPOCH":"6595","APOAPSIS":"540.407","MEAN_ANOMALY":"271.9751","REF_FRAME":"TEME","RCS_SIZE":"LARGE","TLE_LINE2":"2 52100  53.2176   9.4531 0000951  88.1350 271.9751 15.08838892 65955","FILE":"3912278","SITE":"AFETR","CLASSIFICATION_TYPE":"U","OBJECT_ID":"2022-029N","OBJECT_NAME":"STARLINK-3702","MEAN_MOTION_DOT":"0.00000511","TIME_SYSTEM":"UTC","PERIAPSIS":"539.091","NORAD_CAT_ID":"52100","DECAY_DATE":null,"MEAN_ELEMENT_THEORY":"SGP4","OBJECT_TYPE":"PAYLOAD","BSTAR":"0.00005019200000","ELEMENT_SET_NO":"999","INCLINATION":"53.2176"},{"APOAPSIS":"540.337","MEAN_ANOMALY":"269.9960","REV_AT_EPOCH":"6594","ECCENTRICITY":"0.00008510","RCS_SIZE":"LARGE","REF_FRAME":"TEME","TLE_LINE2":"2 52101  53.2205   9.4904 0000851  90.1130 269.9960 15.08839128 65942","FILE":"3912278","ARG_OF_PERICENTER":"90.1130","CENTER_NAME":"EARTH","TLE_LINE1":"1 52101U 22029P   23139.92194006  .00000363  00000-0  40866-4 0  9993","GP_ID":"232162275","EPHEMERIS_TYPE":"0","LAUNCH_DATE":"2022-03-19","EPOCH":"2023-05-19T22:07:35.621184","SEMIMAJOR_AXIS":"6917.883","RA_OF_ASC_NODE":"9.4904","PERIOD":"95.438","MEAN_MOTION":"15.08839128","COUNTRY_CODE":"US","MEAN_MOTION_DDOT":"0.0000000000000","NORAD_CAT_ID":"52101","BSTAR":"0.00004086600000","DECAY_DATE":null,"OBJECT_TYPE":"PAYLOAD","MEAN_ELEMENT_THEORY":"SGP4","ELEMENT_SET_NO":"999","INCLINATION":"53.2205","SITE":"AFETR","CLASSIFICATION_TYPE":"U","OBJECT_ID":"2022-029P","OBJECT_NAME":"STARLINK-3703","PERIAPSIS":"539.159","TIME_SYSTEM":"UTC","MEAN_MOTION_DOT":"0.00000363"},{"REF_FRAME":"TEME","RCS_SIZE":"LARGE","ECCENTRICITY":"0.00010590","REV_AT_EPOCH":"6607","APOAPSIS":"540.467","MEAN_ANOMALY":"271.0052","FILE":"3912278","TLE_LINE2":"2 52102  53.2177 359.7411 0001059  89.1062 271.0052 15.08843541 66073","LAUNCH_DATE":"2022-03-19","EPOCH":"2023-05-19T20:44:07.355328","SEMIMAJOR_AXIS":"6917.870","EPHEMERIS_TYPE":"0","GP_ID":"232161998","TLE_LINE1":"1 52102U 22029Q   23139.86397402  .00000935  00000-0  76840-4 0  9998","ARG_OF_PERICENTER":"89.1062","CENTER_NAME":"EARTH","MEAN_MOTION_DDOT":"0.0000000000000","COUNTRY_CODE":"US","MEAN_MOTION":"15.08843541","PERIOD":"95.437","RA_OF_ASC_NODE":"359.7411","OBJECT_TYPE":"PAYLOAD","DECAY_DATE":null,"MEAN_ELEMENT_THEORY":"SGP4","BSTAR":"0.00007684000000","NORAD_CAT_ID":"52102","INCLINATION":"53.2177","ELEMENT_SET_NO":"999","CLASSIFICATION_TYPE":"U","SITE":"AFETR","MEAN_MOTION_DOT":"0.00000935","TIME_SYSTEM":"UTC","PERIAPSIS":"539.002","OBJECT_NAME":"STARLINK-3709","OBJECT_ID":"2022-029Q"},{"MEAN_ELEMENT_THEORY":"SGP4","DECAY_DATE":null,"OBJECT_TYPE":"PAYLOAD","BSTAR":"-0.00003809100000","NORAD_CAT_ID":"52103","INCLINATION":"53.2173","ELEMENT_SET_NO":"999","CLASSIFICATION_TYPE":"U","SITE":"AFETR","MEAN_MOTION_DOT":"-0.00000894","TIME_SYSTEM":"UTC","PERIAPSIS":"539.116","OBJECT_NAME":"STARLINK-3705","OBJECT_ID":"2022-029R","REF_FRAME":"TEME","RCS_SIZE":"LARGE","ECCENTRICITY":"0.00009850","REV_AT_EPOCH":"6607","APOAPSIS":"540.479","MEAN_ANOMALY":"274.3230","FILE":"3912278","TLE_LINE2":"2 52103  53.2173 359.5671 0000985  85.7875 274.3230 15.08823051 66075","LAUNCH_DATE":"2022-03-19","SEMIMAJOR_AXIS":"6917.932","EPOCH":"2023-05-19T21:41:04.348320","GP_ID":"232160775","EPHEMERIS_TYPE":"0","TLE_LINE1":"1 52103U 22029R   23139.90352255 -.00000894  00000-0 -38091-4 0  9993","ARG_OF_PERICENTER":"85.7875","CENTER_NAME":"EARTH","MEAN_MOTION_DDOT":"0.0000000000000","COUNTRY_CODE":"US","MEAN_MOTION":"15.08823051","PERIOD":"95.439","RA_OF_ASC_NODE":"359.5671"}];
